COSMOS 1933             
1 18958U 88020A   26064.57124519  .00005218  00000+0  25569-3 0  9996
2 18958  82.5096 254.9878 0003489 198.1021 162.0089 15.17938823 49604
SL-3 R/B                
1 19046U 88032B   26064.58484568  .00006886  00000+0  32189-3 0  9990
2 19046  97.5187  47.8501 0024186 246.8551 113.0135 15.19850734 51481
SL-16 R/B               
1 19120U 88039B   26064.47069534 -.00000074  00000+0 -12085-4 0  9999
2 19120  71.0130  77.4694 0022514 340.5401  19.4862 14.19615722957789
COSMOS 1953             
1 19210U 88050A   26064.37030479  .00010541  00000+0  37884-3 0  9998
2 19210  82.5108 162.5894 0012267 136.2497 223.9717 15.28432874 37122
SL-8 R/B                
1 19257U 88053B   26064.63418509  .00000370  00000+0  12839-3 0  9997
2 19257  74.0466 119.9422 0021347 299.8199 173.7495 14.38913126976012
COSMOS 1975             
1 19573U 88093A   26064.59921800  .00008983  00000+0  32709-3 0  9996
2 19573  82.5192 121.7917 0011841 177.2898 182.8408 15.27998410 18780
SL-14 R/B               
1 19574U 88093B   26064.42925985  .00000828  00000+0  92432-4 0  9997
2 19574  82.5297  46.0434 0022015  54.8354  60.7688 14.85650534   388
SL-16 R/B               
1 19650U 88102B   26064.59619519  .00000135  00000+0  92196-4 0  9992
2 19650  71.0000 160.1098 0013688   7.9224 352.2113 14.16149845926317
INTERCOSMOS 24          
1 20261U 89080A   26064.59280707  .00000961  00000+0  28585-3 0  9998
2 20261  82.6031 107.0723 1186770 302.3389  46.8135 12.59550817666289
SL-14 R/B               
1 20262U 89080C   26064.55482791  .00000901  00000+0  26823-3 0  9999
2 20262  82.5972 175.8397 1230411 194.1980 162.1389 12.50487883659636
DELTA 1 R/B             
1 20323U 89089B   26064.55124094  .00000496  00000+0  13091-3 0  9997
2 20323  97.0708 272.6481 0070210 134.8692 225.8238 14.50659366895137
ARIANE 40 R/B           
1 20443U 90005H   26064.57456907  .00000373  00000+0  13233-3 0  9995
2 20443  98.3092 125.3586 0009600 211.2483 148.8136 14.39867342892212
