CCSDS_OMM_VERS = 2.0
CREATION_DATE  = 
ORIGINATOR     = 

OBJECT_NAME    = COSMOS 1933
OBJECT_ID      = 1988-020A
CENTER_NAME    = EARTH
REF_FRAME      = TEME
TIME_SYSTEM    = UTC
MEAN_ELEMENT_THEORY = SGP/SGP4

EPOCH          = 2026-03-05T13:42:35.584416
MEAN_MOTION    = 15.17938823
ECCENTRICITY   = .0003489
INCLINATION    = 82.5096
RA_OF_ASC_NODE = 254.9878
ARG_OF_PERICENTER = 198.1021
MEAN_ANOMALY   = 162.0089

EPHEMERIS_TYPE = 0
CLASSIFICATION_TYPE = U
NORAD_CAT_ID   = 18958
ELEMENT_SET_NO = 999
REV_AT_EPOCH   = 4960
BSTAR          = .25568662E-3
MEAN_MOTION_DOT = .5218E-4
MEAN_MOTION_DDOT = 0

CCSDS_OMM_VERS = 2.0
CREATION_DATE  = 
ORIGINATOR     = 

OBJECT_NAME    = SL-3 R/B
OBJECT_ID      = 1988-032B
CENTER_NAME    = EARTH
REF_FRAME      = TEME
TIME_SYSTEM    = UTC
MEAN_ELEMENT_THEORY = SGP/SGP4

EPOCH          = 2026-03-05T14:02:10.666752
MEAN_MOTION    = 15.19850734
ECCENTRICITY   = .00241862
INCLINATION    = 97.5187
RA_OF_ASC_NODE = 47.8501
ARG_OF_PERICENTER = 246.8551
MEAN_ANOMALY   = 113.0135

EPHEMERIS_TYPE = 0
CLASSIFICATION_TYPE = U
NORAD_CAT_ID   = 19046
ELEMENT_SET_NO = 999
REV_AT_EPOCH   = 5148
BSTAR          = .32189217E-3
MEAN_MOTION_DOT = .6886E-4
MEAN_MOTION_DDOT = 0

CCSDS_OMM_VERS = 2.0
CREATION_DATE  = 
ORIGINATOR     = 

OBJECT_NAME    = SL-16 R/B
OBJECT_ID      = 1988-039B
CENTER_NAME    = EARTH
REF_FRAME      = TEME
TIME_SYSTEM    = UTC
MEAN_ELEMENT_THEORY = SGP/SGP4

EPOCH          = 2026-03-05T11:17:48.077376
MEAN_MOTION    = 14.19615722
ECCENTRICITY   = .00225143
INCLINATION    = 71.0130
RA_OF_ASC_NODE = 77.4694
ARG_OF_PERICENTER = 340.5401
MEAN_ANOMALY   = 19.4862

EPHEMERIS_TYPE = 0
CLASSIFICATION_TYPE = U
NORAD_CAT_ID   = 19120
ELEMENT_SET_NO = 999
REV_AT_EPOCH   = 95778
BSTAR          = -.12084719E-4
MEAN_MOTION_DOT = -.74E-6
MEAN_MOTION_DDOT = 0

CCSDS_OMM_VERS = 2.0
CREATION_DATE  = 
ORIGINATOR     = 

OBJECT_NAME    = COSMOS 1953
OBJECT_ID      = 1988-050A
CENTER_NAME    = EARTH
REF_FRAME      = TEME
TIME_SYSTEM    = UTC
MEAN_ELEMENT_THEORY = SGP/SGP4

EPOCH          = 2026-03-05T08:53:14.333856
MEAN_MOTION    = 15.28432874
ECCENTRICITY   = .00122675
INCLINATION    = 82.5108
RA_OF_ASC_NODE = 162.5894
ARG_OF_PERICENTER = 136.2497
MEAN_ANOMALY   = 223.9717

EPHEMERIS_TYPE = 0
CLASSIFICATION_TYPE = U
NORAD_CAT_ID   = 19210
ELEMENT_SET_NO = 999
REV_AT_EPOCH   = 3712
BSTAR          = .37883697E-3
MEAN_MOTION_DOT = .10541E-3
MEAN_MOTION_DDOT = 0

CCSDS_OMM_VERS = 2.0
CREATION_DATE  = 
ORIGINATOR     = 

OBJECT_NAME    = SL-8 R/B
OBJECT_ID      = 1988-053B
CENTER_NAME    = EARTH
REF_FRAME      = TEME
TIME_SYSTEM    = UTC
MEAN_ELEMENT_THEORY = SGP/SGP4

EPOCH          = 2026-03-05T15:13:13.591776
MEAN_MOTION    = 14.38913126
ECCENTRICITY   = .00213478
INCLINATION    = 74.0466
RA_OF_ASC_NODE = 119.9422
ARG_OF_PERICENTER = 299.8199
MEAN_ANOMALY   = 173.7495

EPHEMERIS_TYPE = 0
CLASSIFICATION_TYPE = U
NORAD_CAT_ID   = 19257
ELEMENT_SET_NO = 999
REV_AT_EPOCH   = 97601
BSTAR          = .12839471E-3
MEAN_MOTION_DOT = .37E-5
MEAN_MOTION_DDOT = 0

CCSDS_OMM_VERS = 2.0
CREATION_DATE  = 
ORIGINATOR     = 

OBJECT_NAME    = COSMOS 1975
OBJECT_ID      = 1988-093A
CENTER_NAME    = EARTH
REF_FRAME      = TEME
TIME_SYSTEM    = UTC
MEAN_ELEMENT_THEORY = SGP/SGP4

EPOCH          = 2026-03-05T14:22:52.435200
MEAN_MOTION    = 15.27998410
ECCENTRICITY   = .00118414
INCLINATION    = 82.5192
RA_OF_ASC_NODE = 121.7917
ARG_OF_PERICENTER = 177.2898
MEAN_ANOMALY   = 182.8408

EPHEMERIS_TYPE = 0
CLASSIFICATION_TYPE = U
NORAD_CAT_ID   = 19573
ELEMENT_SET_NO = 999
REV_AT_EPOCH   = 1878
BSTAR          = .32709118E-3
MEAN_MOTION_DOT = .8983E-4
MEAN_MOTION_DDOT = 0

CCSDS_OMM_VERS = 2.0
CREATION_DATE  = 
ORIGINATOR     = 

OBJECT_NAME    = SL-14 R/B
OBJECT_ID      = 1988-093B
CENTER_NAME    = EARTH
REF_FRAME      = TEME
TIME_SYSTEM    = UTC
MEAN_ELEMENT_THEORY = SGP/SGP4

EPOCH          = 2026-03-05T10:18:08.051040
MEAN_MOTION    = 14.85650534
ECCENTRICITY   = .00220151
INCLINATION    = 82.5297
RA_OF_ASC_NODE = 46.0434
ARG_OF_PERICENTER = 54.8354
MEAN_ANOMALY   = 60.7688

EPHEMERIS_TYPE = 0
CLASSIFICATION_TYPE = U
NORAD_CAT_ID   = 19574
ELEMENT_SET_NO = 999
REV_AT_EPOCH   = 38
BSTAR          = .92431505E-4
MEAN_MOTION_DOT = .828E-5
MEAN_MOTION_DDOT = 0

CCSDS_OMM_VERS = 2.0
CREATION_DATE  = 
ORIGINATOR     = 

OBJECT_NAME    = SL-16 R/B
OBJECT_ID      = 1988-102B
CENTER_NAME    = EARTH
REF_FRAME      = TEME
TIME_SYSTEM    = UTC
MEAN_ELEMENT_THEORY = SGP/SGP4

EPOCH          = 2026-03-05T14:18:31.264416
MEAN_MOTION    = 14.16149845
ECCENTRICITY   = .00136885
INCLINATION    = 71.0000
RA_OF_ASC_NODE = 160.1098
ARG_OF_PERICENTER = 7.9224
MEAN_ANOMALY   = 352.2113

EPHEMERIS_TYPE = 0
CLASSIFICATION_TYPE = U
NORAD_CAT_ID   = 19650
ELEMENT_SET_NO = 999
REV_AT_EPOCH   = 92631
BSTAR          = .92196068E-4
MEAN_MOTION_DOT = .135E-5
MEAN_MOTION_DDOT = 0

CCSDS_OMM_VERS = 2.0
CREATION_DATE  = 
ORIGINATOR     = 

OBJECT_NAME    = INTERCOSMOS 24
OBJECT_ID      = 1989-080A
CENTER_NAME    = EARTH
REF_FRAME      = TEME
TIME_SYSTEM    = UTC
MEAN_ELEMENT_THEORY = SGP/SGP4

EPOCH          = 2026-03-05T14:13:38.530848
MEAN_MOTION    = 12.59550817
ECCENTRICITY   = .11867701
INCLINATION    = 82.6031
RA_OF_ASC_NODE = 107.0723
ARG_OF_PERICENTER = 302.3389
MEAN_ANOMALY   = 46.8135

EPHEMERIS_TYPE = 0
CLASSIFICATION_TYPE = U
NORAD_CAT_ID   = 20261
ELEMENT_SET_NO = 999
REV_AT_EPOCH   = 66628
BSTAR          = .28585103E-3
MEAN_MOTION_DOT = .961E-5
MEAN_MOTION_DDOT = 0

CCSDS_OMM_VERS = 2.0
CREATION_DATE  = 
ORIGINATOR     = 

OBJECT_NAME    = SL-14 R/B
OBJECT_ID      = 1989-080C
CENTER_NAME    = EARTH
REF_FRAME      = TEME
TIME_SYSTEM    = UTC
MEAN_ELEMENT_THEORY = SGP/SGP4

EPOCH          = 2026-03-05T13:18:57.131424
MEAN_MOTION    = 12.50487883
ECCENTRICITY   = .12304113
INCLINATION    = 82.5972
RA_OF_ASC_NODE = 175.8397
ARG_OF_PERICENTER = 194.1980
MEAN_ANOMALY   = 162.1389

EPHEMERIS_TYPE = 0
CLASSIFICATION_TYPE = U
NORAD_CAT_ID   = 20262
ELEMENT_SET_NO = 999
REV_AT_EPOCH   = 65963
BSTAR          = .26823267E-3
MEAN_MOTION_DOT = .901E-5
MEAN_MOTION_DDOT = 0

CCSDS_OMM_VERS = 2.0
CREATION_DATE  = 
ORIGINATOR     = 

OBJECT_NAME    = DELTA 1 R/B
OBJECT_ID      = 1989-089B
CENTER_NAME    = EARTH
REF_FRAME      = TEME
TIME_SYSTEM    = UTC
MEAN_ELEMENT_THEORY = SGP/SGP4

EPOCH          = 2026-03-05T13:13:47.217216
MEAN_MOTION    = 14.50659366
ECCENTRICITY   = .007021
INCLINATION    = 97.0708
RA_OF_ASC_NODE = 272.6481
ARG_OF_PERICENTER = 134.8692
MEAN_ANOMALY   = 225.8238

EPHEMERIS_TYPE = 0
CLASSIFICATION_TYPE = U
NORAD_CAT_ID   = 20323
ELEMENT_SET_NO = 999
REV_AT_EPOCH   = 89513
BSTAR          = .13090913E-3
MEAN_MOTION_DOT = .496E-5
MEAN_MOTION_DDOT = 0

CCSDS_OMM_VERS = 2.0
CREATION_DATE  = 
ORIGINATOR     = 

OBJECT_NAME    = ARIANE 40 R/B
OBJECT_ID      = 1990-005H
CENTER_NAME    = EARTH
REF_FRAME      = TEME
TIME_SYSTEM    = UTC
MEAN_ELEMENT_THEORY = SGP/SGP4

EPOCH          = 2026-03-05T13:47:22.767648
MEAN_MOTION    = 14.39867342
ECCENTRICITY   = .00096006
INCLINATION    = 98.3092
RA_OF_ASC_NODE = 125.3586
ARG_OF_PERICENTER = 211.2483
MEAN_ANOMALY   = 148.8136

EPHEMERIS_TYPE = 0
CLASSIFICATION_TYPE = U
NORAD_CAT_ID   = 20443
ELEMENT_SET_NO = 999
REV_AT_EPOCH   = 89221
BSTAR          = .13233432E-3
MEAN_MOTION_DOT = .373E-5
MEAN_MOTION_DDOT = 0

